#aV2013 11 19  0  0  0.00000000     288 DD+AD WGS84 FIT  NGA
## 1767 172800.00000000   300.00000000 56615 0.0000000000000
+   31     1  2  3  4  5  6  7  8  9 10 11 12 13 14 15 16 17
+         18 19 20 21 22 23 24 25 26 27 28 29 31 32  0  0  0
+          0  0  0  0  0  0  0  0  0  0  0  0  0  0  0  0  0
+          0  0  0  0  0  0  0  0  0  0  0  0  0  0  0  0  0
+          0  0  0  0  0  0  0  0  0  0  0  0  0  0  0  0  0
++         2  2  2  2  2  2  2  2  2  2  2  2  2  2  2  2  2
++         2  2  2  2  2  2  2  2  2  2  2  2  2  2  2  0  0
++         0  0  0  0  0  0  0  0  0  0  0  0  0  0  0  0  0
++         0  0  0  0  0  0  0  0  0  0  0  0  0  0  0  0  0
++         0  0  0  0  0  0  0  0  0  0  0  0  0  0  0  0  0
%c cc cc ccc ccc cccc cccc cccc cccc ccccc ccccc ccccc ccccc
%c cc cc ccc ccc cccc cccc cccc cccc ccccc ccccc ccccc ccccc
%f  0.0000000  0.000000000  0.00000000000  0.000000000000000
%f  0.0000000  0.000000000  0.00000000000  0.000000000000000
%i    0    0    0    0      0      0      0      0         0
%i    0    0    0    0      0      0      0      0         0
/*      NGA, ST. LOUIS,MO.                                  
/*   EPHEMERIS COMPUTED FROM  1 DAYS OF DATA
/*   EPOCHA SMOOTHER  
/* CCCCCCCCCCCCCCCCCCCCCCCCCCCCCCCCCCCCCCCCCCCCCCCCCCCCCCCCC
*  2013 11 19  9 50  0.00000000                                                 
P  1  12908.349258 -22681.435168  -4641.638373     95.471546                    
V  1   5816.783660  -2980.321452  31075.570814      0.032181                    
P  2 -19646.417396   8536.437259 -15135.892504    462.196435                    
V  2   9171.215416 -17903.062639 -22165.631772      0.021321                    
P  3  15060.522167  -4794.560624  20828.170987    288.237025                    
V  3  14230.572627  23855.796555  -4505.395270      0.051998                    
P  4 -15276.774993  -5635.646212 -21318.770750      3.349033                    
V  4  15273.446773 -21563.977244  -5066.492655      0.004187                    
P  5 -25240.067209   2911.822589   7977.460383   -397.265411                    
V  5  -9767.026680  -3995.108185 -29151.168182      0.007428                    
P  6  17764.788609   3402.751962  19624.558259    156.447889                    
V  6  10254.582831  22554.417409 -12843.134954      0.170984                    
P  7    868.454613 -20130.917778  17199.730753    282.372586                    
V  7  14699.780156 -16190.592834 -20080.765148      0.042063                    
P  8  -8266.957184 -12143.516284  22214.406920      9.994545                    
V  8  19437.770892 -19928.756680  -4271.604586      0.002887                    
P  9  -9032.355964 -11823.071588  21460.247188    284.189184                    
V  9  17349.380641 -22585.161639  -5153.166460      0.028600                    
P 10 -23383.534795  -9696.887313  -9042.710985   -102.415492                    
V 10  11195.235369  -1215.484455 -28242.743388     -0.016665                    
P 11  12438.789734 -22571.205059   5422.722509   -439.288902                    
V 11   2374.825021   8865.269682  29154.460351     -0.033980                    
P 12 -12143.697537  11829.065017 -20435.918772    168.987100                    
V 12 -25407.613836  -4752.247820  12575.747641      0.022686                    
P 13  -4431.869635 -25620.690244  -5163.976913     58.318295                    
V 13   4072.498372   5431.029065 -31368.500132     -0.038490                    
P 14  14694.112716  19082.829509 -11138.686989    210.223474                    
V 14   2795.116850  14282.133862  27477.324806     -0.010542                    
P 15  -8227.570113  15936.258892  19468.315141   -147.910783                    
V 15 -12105.437019 -21885.453642  13050.872419     -0.019483                    
P 16  25333.410752  -1299.234399   8414.801366   -241.388499                    
V 16  10182.516659   3347.611970 -29701.923331      0.011029                    
P 17 -15117.298036 -19201.212052 -10465.301975    -42.186782                    
V 17  -2823.211692 -13421.687657  27848.375117     -0.036334                    
P 18   9768.684128  15824.385345  19500.406680    285.781835                    
V 18 -23893.759852  -1288.115874  12966.096156      0.021122                    
P 19  10497.977560 -13205.252411  20286.251017   -419.631347                    
V 19   9253.660752  24471.146559  11492.916734     -0.026442                    
P 20   7676.519161 -15062.301172 -20656.085312    138.070611                    
V 20  25857.503268   2500.094110   7934.812894      0.029213                    
P 21   2965.321278  19177.087670  18517.064444   -329.204073                    
V 21 -15066.131223  16968.450962 -16168.979173     -0.017761                    
P 22  20860.671896  11537.155632  12062.445517    196.029223                    
V 22 -15298.734991   1376.158107  25412.510934      0.021719                    
P 23   2194.571785 -21738.563351 -14720.756953     28.853148                    
V 23   9684.327766  16580.573958 -23292.509495     -0.033595                    
P 24 -15456.579778  21553.988620   -289.188744    -17.653071                    
V 24  -2618.080244  -1457.196953  31727.426489     -0.006625                    
P 25   2529.757825  15124.397692 -21753.506920    167.887189                    
V 25 -27297.659872  -2722.761239  -4978.598185      0.031276                    
P 26 -14685.286363   1629.259896  21451.646447    245.163042                    
V 26  -8686.757755 -27373.584347  -3453.892488     -0.102685                    
P 27  15945.081795   -490.155140  21229.208223     -1.112600                    
V 27  10221.606388  24967.961471  -7079.446114     -0.034176                    
P 28 -17875.206727 -13361.275606  15126.125527    309.985453                    
V 28  17979.472461   1954.910007  23768.192431      0.029377                    
P 29   2449.267668  24769.367612  -9277.083144    488.224242                    
V 29  -6336.554807 -10245.825837 -28871.783117      0.030084                    
P 31  15798.607154   2789.447820 -21052.893540    329.913651                    
V 31 -16290.313960  21556.954727  -9008.161409      0.006319                    
P 32  18402.296024  -8517.465576 -16771.745076   -527.605194                    
V 32  20811.754134   6648.941606  19891.133052      0.047006                    
EOF
